IRIDIUM 106             
1 41917U 17003A   24215.71284718  .00000323  00000+0  10825-3 0  9991
2 41917  86.3983  14.1347 0002195  80.0688 280.0756 14.34220209395246
IRIDIUM 103             
1 41918U 17003B   24216.53738756  .00000084  00000+0  23058-4 0  9996
2 41918  86.3985  13.6919 0002522  92.6046 267.5438 14.34218024395383
IRIDIUM 109             
1 41919U 17003C   24216.47396286  .00000534  00000+0  18363-3 0  9990
2 41919  86.3985  13.7665 0002253 101.7779 258.3670 14.34218257395349
IRIDIUM 102             
1 41920U 17003D   24216.51201753  .00000519  00000+0  17830-3 0  9992
2 41920  86.3984  13.6887 0002013  95.9920 264.1505 14.34219713395431
IRIDIUM 105             
1 41921U 17003E   24216.62229282  .00000525  00000+0  18022-3 0  9993
2 41921  86.4012 342.0918 0002354  92.2287 267.9179 14.34219611397306
IRIDIUM 104             
1 41922U 17003F   24216.52470087  .00000235  00000+0  76829-4 0  9992
2 41922  86.3985  13.7154 0002394 100.8301 259.3164 14.34217971395423
IRIDIUM 114             
1 41923U 17003G   24216.53103322  .00000158  00000+0  49446-4 0  9998
2 41923  86.3984  13.6987 0002113  85.5385 274.6052 14.34215685395422
IRIDIUM 108             
1 41924U 17003H   24216.62909976  .00000141  00000+0  43287-4 0  9997
2 41924  86.4008 342.0108 0001998  90.7032 269.4392 14.34219680397275
